MTI                     
1 26102U 00014A   20358.22911854  .00008595  00000-0  11629-3 0  9995
2 26102  97.4809 249.7388 0005084 250.3385 109.7320 15.57972948153888
CFESAT                  
1 30777U 07006F   20357.23924541  .00005457  00000-0  14317-3 0  9994
2 30777  35.4235 194.2549 0003519  91.9577 268.1553 15.38074069765379
SPIRALE A               
1 33751U 09008C   20357.33596186  .00000099  00000-0  64571-3 0  9998
2 33751   2.0806  39.6706 5374371 318.8479  11.0672  4.58768788169912
SPIRALE B               
1 33752U 09008D   20357.30021465  .00001383  00000-0  46332-3 0  9991
2 33752   2.1890  44.4853 6898420 294.7020  10.3555  2.76306902109948
SAPPHIRE                
1 39088U 13009C   20357.49972303 -.00000001  00000-0  14903-4 0  9998
2 39088  98.4538 194.9531 0012544  87.6372 272.6249 14.34228234409433
